start=new Date('2023-02-18T00:00:00.000Z').valueOf();
sats=[{"MEAN_MOTION_DOT":"0.00023095","INCLINATION":"53.2153","OBJECT_ID":"2022-051Q","MEAN_ELEMENT_THEORY":"SGP4","SEMIMAJOR_AXIS":"6917.817","ARG_OF_PERICENTER":"101.5797","CLASSIFICATION_TYPE":"U","TIME_SYSTEM":"UTC","CENTER_NAME":"EARTH","FILE":"3802730","MEAN_MOTION":"15.08860677","DECAY_DATE":null,"GP_ID":"225781798","TLE_LINE2":"2 52547  53.2153 104.5776 0001336 101.5797 258.5345 15.08860677 42878","ECCENTRICITY":"0.00013360","MEAN_MOTION_DDOT":"0.0000000000000","RCS_SIZE":"LARGE","COUNTRY_CODE":"US","MEAN_ANOMALY":"258.5345","SITE":"AFWTR","TLE_LINE1":"1 52547U 22051Q   23048.56992321  .00023095  00000-0  14636-2 0  9998","REF_FRAME":"TEME","REV_AT_EPOCH":"4287","OBJECT_TYPE":"PAYLOAD","EPOCH":"2023-02-17T13:40:41.365344","ELEMENT_SET_NO":"999","LAUNCH_DATE":"2022-05-13","PERIOD":"95.436","RA_OF_ASC_NODE":"104.5776","BSTAR":"0.00146360000000","NORAD_CAT_ID":"52547","OBJECT_NAME":"STARLINK-3869","EPHEMERIS_TYPE":"0","APOAPSIS":"540.606","PERIAPSIS":"538.758"},{"ARG_OF_PERICENTER":"94.2791","CLASSIFICATION_TYPE":"U","MEAN_ELEMENT_THEORY":"SGP4","SEMIMAJOR_AXIS":"6917.869","OBJECT_ID":"2022-051R","INCLINATION":"53.2151","MEAN_MOTION_DOT":"-0.00000876","TLE_LINE2":"2 52548  53.2151  98.3506 0001099  94.2791 265.8326 15.08843648 43067","ECCENTRICITY":"0.00010990","MEAN_MOTION_DDOT":"0.0000000000000","COUNTRY_CODE":"US","RCS_SIZE":"LARGE","DECAY_DATE":null,"GP_ID":"225805670","FILE":"3803618","MEAN_MOTION":"15.08843648","TIME_SYSTEM":"UTC","CENTER_NAME":"EARTH","LAUNCH_DATE":"2022-05-13","PERIOD":"95.437","OBJECT_TYPE":"PAYLOAD","EPOCH":"2023-02-17T20:16:10.244928","ELEMENT_SET_NO":"999","SITE":"AFWTR","TLE_LINE1":"1 52548U 22051R   23048.84456302 -.00000876  00000-0 -36951-4 0  9994","REF_FRAME":"TEME","REV_AT_EPOCH":"4306","MEAN_ANOMALY":"265.8326","APOAPSIS":"540.495","PERIAPSIS":"538.974","NORAD_CAT_ID":"52548","OBJECT_NAME":"STARLINK-3931","EPHEMERIS_TYPE":"0","RA_OF_ASC_NODE":"98.3506","BSTAR":"-0.00003695100000"},{"OBJECT_ID":"2022-051S","INCLINATION":"53.2144","MEAN_MOTION_DOT":"0.00026165","ARG_OF_PERICENTER":"70.8599","CLASSIFICATION_TYPE":"U","SEMIMAJOR_AXIS":"6917.937","MEAN_ELEMENT_THEORY":"SGP4","FILE":"3804075","MEAN_MOTION":"15.08821639","CENTER_NAME":"EARTH","TIME_SYSTEM":"UTC","MEAN_MOTION_DDOT":"0.0000000000000","ECCENTRICITY":"0.00012990","TLE_LINE2":"2 52549  53.2144  98.2681 0001299  70.8599 289.2534 15.08821639 42999","RCS_SIZE":"LARGE","COUNTRY_CODE":"US","GP_ID":"225837563","DECAY_DATE":null,"TLE_LINE1":"1 52549U 22051S   23048.86297024  .00026165  00000-0  16568-2 0  9998","SITE":"AFWTR","REF_FRAME":"TEME","REV_AT_EPOCH":"4299","MEAN_ANOMALY":"289.2534","LAUNCH_DATE":"2022-05-13","PERIOD":"95.439","ELEMENT_SET_NO":"999","EPOCH":"2023-02-17T20:42:40.628736","OBJECT_TYPE":"PAYLOAD","NORAD_CAT_ID":"52549","EPHEMERIS_TYPE":"0","OBJECT_NAME":"STARLINK-3935","RA_OF_ASC_NODE":"98.2681","BSTAR":"0.00165680000000","PERIAPSIS":"538.903","APOAPSIS":"540.700"},{"TIME_SYSTEM":"UTC","CENTER_NAME":"EARTH","MEAN_MOTION":"15.08820954","FILE":"3803618","DECAY_DATE":null,"GP_ID":"225805665","COUNTRY_CODE":"US","RCS_SIZE":"LARGE","TLE_LINE2":"2 52550  53.2153  98.3175 0001339 107.6993 252.4145 15.08820954 43060","MEAN_MOTION_DDOT":"0.0000000000000","ECCENTRICITY":"0.00013390","MEAN_MOTION_DOT":"-0.00006826","INCLINATION":"53.2153","OBJECT_ID":"2022-051T","MEAN_ELEMENT_THEORY":"SGP4","SEMIMAJOR_AXIS":"6917.939","CLASSIFICATION_TYPE":"U","ARG_OF_PERICENTER":"107.6993","BSTAR":"-0.00041142000000","RA_OF_ASC_NODE":"98.3175","OBJECT_NAME":"STARLINK-3965","EPHEMERIS_TYPE":"0","NORAD_CAT_ID":"52550","APOAPSIS":"540.730","PERIAPSIS":"538.877","MEAN_ANOMALY":"252.4145","REV_AT_EPOCH":"4306","REF_FRAME":"TEME","SITE":"AFWTR","TLE_LINE1":"1 52550U 22051T   23048.85193166 -.00006826  00000-0 -41142-3 0  9992","EPOCH":"2023-02-17T20:26:46.895424","OBJECT_TYPE":"PAYLOAD","ELEMENT_SET_NO":"999","PERIOD":"95.439","LAUNCH_DATE":"2022-05-13"},{"MEAN_MOTION":"15.08826871","FILE":"3803619","TIME_SYSTEM":"UTC","CENTER_NAME":"EARTH","RCS_SIZE":"LARGE","COUNTRY_CODE":"US","TLE_LINE2":"2 52551  53.2149  98.2777 0001689  90.9907 269.1278 15.08826871 43066","ECCENTRICITY":"0.00016890","MEAN_MOTION_DDOT":"0.0000000000000","GP_ID":"225805684","DECAY_DATE":null,"OBJECT_ID":"2022-051U","INCLINATION":"53.2149","MEAN_MOTION_DOT":"0.00014944","CLASSIFICATION_TYPE":"U","ARG_OF_PERICENTER":"90.9907","MEAN_ELEMENT_THEORY":"SGP4","SEMIMAJOR_AXIS":"6917.921","OBJECT_NAME":"STARLINK-3969","EPHEMERIS_TYPE":"0","NORAD_CAT_ID":"52551","BSTAR":"0.00095538000000","RA_OF_ASC_NODE":"98.2777","APOAPSIS":"540.954","PERIAPSIS":"538.617","REV_AT_EPOCH":"4306","REF_FRAME":"TEME","SITE":"AFWTR","TLE_LINE1":"1 52551U 22051U   23048.85929412  .00014944  00000-0  95538-3 0  9990","MEAN_ANOMALY":"269.1278","PERIOD":"95.438","LAUNCH_DATE":"2022-05-13","EPOCH":"2023-02-17T20:37:23.011968","OBJECT_TYPE":"PAYLOAD","ELEMENT_SET_NO":"999"},{"PERIOD":"95.439","LAUNCH_DATE":"2022-05-13","ELEMENT_SET_NO":"999","EPOCH":"2023-02-17T20:10:52.400928","OBJECT_TYPE":"PAYLOAD","REV_AT_EPOCH":"4306","REF_FRAME":"TEME","TLE_LINE1":"1 52552U 22051V   23048.84088427 -.00002178  00000-0 -11888-3 0  9996","SITE":"AFWTR","MEAN_ANOMALY":"260.8163","PERIAPSIS":"539.247","APOAPSIS":"540.396","EPHEMERIS_TYPE":"0","OBJECT_NAME":"STARLINK-3966","NORAD_CAT_ID":"52552","BSTAR":"-0.00011888000000","RA_OF_ASC_NODE":"98.3689","CLASSIFICATION_TYPE":"U","ARG_OF_PERICENTER":"99.2923","MEAN_ELEMENT_THEORY":"SGP4","SEMIMAJOR_AXIS":"6917.957","OBJECT_ID":"2022-051V","INCLINATION":"53.2151","MEAN_MOTION_DOT":"-0.00002178","RCS_SIZE":"LARGE","COUNTRY_CODE":"US","ECCENTRICITY":"0.00008300","MEAN_MOTION_DDOT":"0.0000000000000","TLE_LINE2":"2 52552  53.2151  98.3689 0000830  99.2923 260.8163 15.08815072 43062","DECAY_DATE":null,"GP_ID":"225805664","MEAN_MOTION":"15.08815072","FILE":"3803618","CENTER_NAME":"EARTH","TIME_SYSTEM":"UTC"},{"NORAD_CAT_ID":"52553","OBJECT_NAME":"STARLINK-3858","EPHEMERIS_TYPE":"0","RA_OF_ASC_NODE":"98.3031","BSTAR":"0.00133520000000","APOAPSIS":"540.775","PERIAPSIS":"538.799","SITE":"AFWTR","TLE_LINE1":"1 52553U 22051W   23048.85560786  .00021018  00000-0  13352-2 0  9990","REF_FRAME":"TEME","REV_AT_EPOCH":"4299","MEAN_ANOMALY":"256.4693","LAUNCH_DATE":"2022-05-13","PERIOD":"95.438","EPOCH":"2023-02-17T20:32:04.519104","OBJECT_TYPE":"PAYLOAD","ELEMENT_SET_NO":"999","FILE":"3804075","MEAN_MOTION":"15.08826457","TIME_SYSTEM":"UTC","CENTER_NAME":"EARTH","TLE_LINE2":"2 52553  53.2138  98.3031 0001428 103.6458 256.4693 15.08826457 42995","MEAN_MOTION_DDOT":"0.0000000000000","ECCENTRICITY":"0.00014280","RCS_SIZE":"LARGE","COUNTRY_CODE":"US","DECAY_DATE":null,"GP_ID":"225838063","OBJECT_ID":"2022-051W","INCLINATION":"53.2138","MEAN_MOTION_DOT":"0.00021018","ARG_OF_PERICENTER":"103.6458","CLASSIFICATION_TYPE":"U","MEAN_ELEMENT_THEORY":"SGP4","SEMIMAJOR_AXIS":"6917.922"},{"CENTER_NAME":"EARTH","TIME_SYSTEM":"UTC","MEAN_MOTION":"15.08808118","FILE":"3803618","GP_ID":"225806042","DECAY_DATE":null,"RCS_SIZE":"LARGE","COUNTRY_CODE":"US","MEAN_MOTION_DDOT":"0.0000000000000","ECCENTRICITY":"0.00012000","TLE_LINE2":"2 52554  53.2152 104.6185 0001200 102.7049 257.4077 15.08808118 42943","MEAN_MOTION_DOT":"0.00022276","OBJECT_ID":"2022-051X","INCLINATION":"53.2152","SEMIMAJOR_AXIS":"6917.978","MEAN_ELEMENT_THEORY":"SGP4","CLASSIFICATION_TYPE":"U","ARG_OF_PERICENTER":"102.7049","BSTAR":"0.00141450000000","RA_OF_ASC_NODE":"104.6185","EPHEMERIS_TYPE":"0","OBJECT_NAME":"STARLINK-3770","NORAD_CAT_ID":"52554","PERIAPSIS":"539.013","APOAPSIS":"540.673","MEAN_ANOMALY":"257.4077","REF_FRAME":"TEME","REV_AT_EPOCH":"4294","TLE_LINE1":"1 52554U 22051X   23048.56258378  .00022276  00000-0  14145-2 0  9998","SITE":"AFWTR","ELEMENT_SET_NO":"999","OBJECT_TYPE":"PAYLOAD","EPOCH":"2023-02-17T13:30:07.238592","PERIOD":"95.440","LAUNCH_DATE":"2022-05-13"},{"BSTAR":"0.00094787000000","RA_OF_ASC_NODE":"98.3361","EPHEMERIS_TYPE":"0","OBJECT_NAME":"STARLINK-3949","NORAD_CAT_ID":"52555","PERIAPSIS":"539.043","APOAPSIS":"540.593","MEAN_ANOMALY":"244.5156","REF_FRAME":"TEME","REV_AT_EPOCH":"4306","TLE_LINE1":"1 52555U 22051Y   23048.84824850  .00014820  00000-0  94787-3 0  9991","SITE":"AFWTR","ELEMENT_SET_NO":"999","EPOCH":"2023-02-17T20:21:28.670400","OBJECT_TYPE":"PAYLOAD","PERIOD":"95.439","LAUNCH_DATE":"2022-05-13","CENTER_NAME":"EARTH","TIME_SYSTEM":"UTC","MEAN_MOTION":"15.08816153","FILE":"3803618","DECAY_DATE":null,"GP_ID":"225805661","RCS_SIZE":"LARGE","COUNTRY_CODE":"US","ECCENTRICITY":"0.00011200","MEAN_MOTION_DDOT":"0.0000000000000","TLE_LINE2":"2 52555  53.2148  98.3361 0001120 115.5952 244.5156 15.08816153 43067","MEAN_MOTION_DOT":"0.00014820","OBJECT_ID":"2022-051Y","INCLINATION":"53.2148","MEAN_ELEMENT_THEORY":"SGP4","SEMIMAJOR_AXIS":"6917.953","CLASSIFICATION_TYPE":"U","ARG_OF_PERICENTER":"115.5952"},{"FILE":"3802730","MEAN_MOTION":"15.12942788","CENTER_NAME":"EARTH","TIME_SYSTEM":"UTC","MEAN_MOTION_DDOT":"0.0000000000000","ECCENTRICITY":"0.00018520","TLE_LINE2":"2 52556  53.2164 103.8325 0001852  81.5199 278.6005 15.12942788 42873","COUNTRY_CODE":"US","RCS_SIZE":"LARGE","GP_ID":"225782552","DECAY_DATE":null,"INCLINATION":"53.2164","OBJECT_ID":"2022-051Z","MEAN_MOTION_DOT":"0.00033667","ARG_OF_PERICENTER":"81.5199","CLASSIFICATION_TYPE":"U","SEMIMAJOR_AXIS":"6905.368","MEAN_ELEMENT_THEORY":"SGP4","NORAD_CAT_ID":"52556","EPHEMERIS_TYPE":"0","OBJECT_NAME":"STARLINK-3763","RA_OF_ASC_NODE":"103.8325","BSTAR":"0.00189620000000","PERIAPSIS":"525.954","APOAPSIS":"528.512","TLE_LINE1":"1 52556U 22051Z   23048.42174595  .00033667  00000-0  18962-2 0  9990","SITE":"AFWTR","REV_AT_EPOCH":"4287","REF_FRAME":"TEME","MEAN_ANOMALY":"278.6005","LAUNCH_DATE":"2022-05-13","PERIOD":"95.179","ELEMENT_SET_NO":"999","OBJECT_TYPE":"PAYLOAD","EPOCH":"2023-02-17T10:07:18.850080"}];
